H1 CPF 01  gfz 2022 03 26 13  5852 tandemx   
H2 1003001  6202 36605    2022 03 26 12 59 42 2022 03 31 00 00 42   120 1 1  0 0 0
H9
10 0 59668  48942.000000  0   -1724085.277  -1855310.505  -6413147.195
10 0 59668  49062.000000  0   -1414808.611  -1029475.080  -6669558.413
10 0 59668  49182.000000  0   -1066469.596   -191565.600  -6809638.103
10 0 59668  49302.000000  0    -685027.134    643274.812  -6830977.782
10 0 59668  49422.000000  0    -277269.859   1460073.204  -6733209.691
10 0 59668  49542.000000  0     149301.132   2244288.086  -6518012.147
10 0 59668  49662.000000  0     586605.647   2982062.321  -6189085.810
10 0 59668  49782.000000  0    1026134.221   3660465.566  -5752097.672
10 0 59668  49902.000000  0    1459109.236   4267720.000  -5214592.162
10 0 59668  50022.000000  0    1876656.227   4793407.496  -4585873.061
10 0 59668  50142.000000  0    2269982.959   5228655.512  -3876853.573
10 0 59668  50262.000000  0    2630561.902   5566295.368  -3099875.705
10 0 59668  50382.000000  0    2950312.973   5800990.780  -2268502.708
10 0 59668  50502.000000  0    3221782.842   5929332.851  -1397285.472
10 0 59668  50622.000000  0    3438315.379   5949898.093   -501506.686
10 0 59668  50742.000000  0    3594208.346   5863266.764    403092.159
10 0 59668  50862.000000  0    3684852.435   5672000.642   1300594.306
10 0 59668  50982.000000  0    3706849.977   5380580.895   2175195.376
10 0 59668  51102.000000  0    3658109.170   4995308.767   3011490.120
10 0 59668  51222.000000  0    3537911.107   4524168.276   3794753.087
10 0 59668  51342.000000  0    3346948.956   3976655.559   4511201.961
10 0 59668  51462.000000  0    3087337.580   3363582.993   5148245.141
10 0 59668  51582.000000  0    2762590.304   2696857.380   5694702.818
10 0 59668  51702.000000  0    2377571.192   1989242.488   6140998.052
10 0 59668  51822.000000  0    1938420.770   1254110.236   6479320.348
10 0 59668  51942.000000  0    1452454.731    505184.128   6703756.141
10 0 59668  52062.000000  0     928039.550   -243717.046   6810385.409
10 0 59668  52182.000000  0     374447.682   -978933.243   6797347.217
10 0 59668  52302.000000  0    -198306.795  -1687212.878   6664870.513
10 0 59668  52422.000000  0    -779649.525  -2355951.544   6415269.806
10 0 59668  52542.000000  0   -1358640.525  -2973416.631   6052905.791
10 0 59668  52662.000000  0   -1924177.330  -3528953.565   5584113.107
10 0 59668  52782.000000  0   -2465207.118  -4013172.707   5017097.442
10 0 59668  52902.000000  0   -2970945.353  -4418113.948   4361799.270
10 0 59668  53022.000000  0   -3431094.546  -4737383.888   3629723.649
10 0 59668  53142.000000  0   -3836056.619  -4966262.434   2833739.633
10 0 59668  53262.000000  0   -4177134.534  -5101777.010   1987853.936
10 0 59668  53382.000000  0   -4446720.534  -5142742.611   1106961.472
10 0 59668  53502.000000  0   -4638465.027  -5089765.168    206577.111
10 0 59668  53622.000000  0   -4747421.798  -4945208.702   -697445.199
10 0 59668  53742.000000  0   -4770165.762  -4713126.801  -1589200.956
10 0 59668  53862.000000  0   -4704879.062  -4399159.196  -2453024.448
10 0 59668  53982.000000  0   -4551403.658  -4010396.440  -3273770.808
10 0 59668  54102.000000  0   -4311260.146  -3555218.028  -4037084.552
10 0 59668  54222.000000  0   -3987633.289  -3043108.663  -4729650.240
10 0 59668  54342.000000  0   -3585324.984  -2484456.608  -5339420.948
10 0 59668  54462.000000  0   -3110676.205  -1890339.696  -5855820.195
10 0 59668  54582.000000  0   -2571461.059  -1272304.001  -6269915.601
10 0 59668  54702.000000  0   -1976754.408   -642139.281  -6574562.623
10 0 59668  54822.000000  0   -1336775.752    -11656.061  -6764515.762
10 0 59668  54942.000000  0    -662714.561    607530.867  -6836507.704
10 0 59668  55062.000000  0      33461.489   1204210.674  -6789299.652
10 0 59668  55182.000000  0     739213.215   1767773.856  -6623700.060
10 0 59668  55302.000000  0    1441649.944   2288396.413  -6342554.830
10 0 59668  55422.000000  0    2127760.464   2757208.944  -5950703.634
10 0 59668  55542.000000  0    2784649.996   3166447.589  -5454905.168
10 0 59668  55662.000000  0    3399779.574   3509583.339  -4863730.818
10 0 59668  55782.000000  0    3961205.480   3781430.337  -4187428.967
10 0 59668  55902.000000  0    4457814.509   3978229.282  -3437757.836
10 0 59668  56022.000000  0    4879549.519   4097703.564  -2627788.633
10 0 59668  56142.000000  0    5217618.547   4139086.325  -1771681.898
10 0 59668  56262.000000  0    5464684.084   4103117.968   -884440.891
10 0 59668  56382.000000  0    5615026.291   3992012.852     18354.287
10 0 59668  56502.000000  0    5664676.384   3809396.481    920825.418
10 0 59668  56622.000000  0    5611516.718   3560213.146   1807083.497
10 0 59668  56742.000000  0    5455343.047   3250606.006   2661517.433
10 0 59668  56862.000000  0    5197887.701   2887774.247   3469077.908
10 0 59668  56982.000000  0    4842803.035   2479809.469   4215550.049
10 0 59668  57102.000000  0    4395604.902   2035515.329   4887806.891
10 0 59668  57222.000000  0    3863582.653   1564218.287   5474040.707
10 0 59668  57342.000000  0    3255671.670   1075571.048   5963970.969
10 0 59668  57462.000000  0    2582294.333    579353.001   6349018.746
10 0 59668  57582.000000  0    1855175.928     85275.109   6622449.244
10 0 59668  57702.000000  0    1087137.862   -397208.688   6779484.825
10 0 59668  57822.000000  0     291868.835   -859082.102   6817384.859
10 0 59668  57942.000000  0    -516320.330  -1291934.501   6735489.529
10 0 59668  58062.000000  0   -1322753.921  -1688113.875   6535229.929
10 0 59668  58182.000000  0   -2112656.621  -2040862.054   6220103.060
10 0 59668  58302.000000  0   -2871421.886  -2344429.357   5795615.035
10 0 59668  58422.000000  0   -3584883.673  -2594170.249   5269193.670
10 0 59668  58542.000000  0   -4239586.464  -2786616.922   4650063.800
10 0 59668  58662.000000  0   -4823044.214  -2919527.934   3949089.491
10 0 59668  58782.000000  0   -5323984.671  -2991910.921   3178586.508
10 0 59668  58902.000000  0   -5732574.421  -3004019.848   2352108.083
10 0 59668  59022.000000  0   -6040620.350  -2957327.198   1484205.358
10 0 59668  59142.000000  0   -6241740.534  -2854470.472    590165.319
10 0 59668  59262.000000  0   -6331499.272  -2699172.738   -314265.815
10 0 59668  59382.000000  0   -6307504.810  -2496141.475  -1213168.619
10 0 59668  59502.000000  0   -6169464.369  -2250946.493  -2090740.875
10 0 59668  59622.000000  0   -5919195.584  -1969881.403  -2931582.647
10 0 59668  59742.000000  0   -5560596.778  -1659812.354  -3720971.036
10 0 59668  59862.000000  0   -5099576.219  -1328017.974  -4445119.414
10 0 59668  59982.000000  0   -4543943.524   -982024.598  -5091415.960
10 0 59668  60102.000000  0   -3903265.626   -629440.323  -5648637.931
10 0 59668  60222.000000  0   -3188691.366   -277792.306  -6107137.153
10 0 59668  60342.000000  0   -2412750.233     65629.326  -6458995.404
10 0 59668  60462.000000  0   -1589129.165    393917.419  -6698149.401
10 0 59668  60582.000000  0    -732431.096    700681.073  -6820484.289
10 0 59668  60702.000000  0     142079.567    980166.127  -6823896.079
10 0 59668  60822.000000  0    1018741.393   1227359.396  -6708323.475
10 0 59668  60942.000000  0    1881769.605   1438076.054  -6475751.683
10 0 59668  61062.000000  0    2715534.868   1609030.119  -6130182.169
10 0 59668  61182.000000  0    3504842.091   1737885.279  -5677570.463
10 0 59668  61302.000000  0    4235204.021   1823285.648  -5125733.105
10 0 59668  61422.000000  0    4893108.538   1864867.000  -4484225.112
10 0 59668  61542.000000  0    5466274.164   1863247.426  -3764185.052
10 0 59668  61662.000000  0    5943886.791   1819996.833  -2978150.648
10 0 59668  61782.000000  0    6316814.276   1737586.139  -2139847.867
10 0 59668  61902.000000  0    6577793.517   1619317.328  -1263953.660
10 0 59668  62022.000000  0    6721582.945   1469234.566   -365837.403
10 0 59668  62142.000000  0    6745076.728   1292018.385    538714.306
10 0 59668  62262.000000  0    6647375.373   1092866.550   1433781.714
10 0 59668  62382.000000  0    6429815.555    877363.903   2303600.191
10 0 59668  62502.000000  0    6095952.477    651343.439   3132848.017
10 0 59668  62622.000000  0    5651497.760    420743.712   3906923.575
10 0 59668  62742.000000  0    5104213.238    191465.721   4612208.077
10 0 59668  62862.000000  0    4463766.678    -30765.875   5236306.510
10 0 59668  62982.000000  0    3741550.811   -240536.587   5768266.246
10 0 59668  63102.000000  0    2950470.100   -432865.213   6198764.869
10 0 59668  63222.000000  0    2104703.105   -603314.144   6520267.911
10 0 59668  63342.000000  0    1219443.805   -748085.919   6727155.367
10 0 59668  63462.000000  0     310624.727   -864104.009   6815815.238
10 0 59668  63582.000000  0    -605371.357   -949075.705   6784701.411
10 0 59668  63702.000000  0   -1512005.986  -1001536.949   6634358.009
10 0 59668  63822.000000  0   -2392882.272  -1020877.526   6367409.773
10 0 59668  63942.000000  0   -3232039.699  -1007346.370   5988519.275
10 0 59668  64062.000000  0   -4014244.772   -962037.301   5504312.392
10 0 59668  64182.000000  0   -4725272.609   -886856.342   4923269.049
10 0 59668  64302.000000  0   -5352172.862   -784469.945   4255579.881
10 0 59668  64422.000000  0   -5883513.880   -658235.133   3512970.805
10 0 59668  64542.000000  0   -6309599.609   -512113.035   2708499.105
10 0 59668  64662.000000  0   -6622656.855   -350567.632   1856324.648
10 0 59668  64782.000000  0   -6816987.435   -178451.744    971456.631
10 0 59668  64902.000000  0   -6889078.570      -883.950     69482.021
10 0 59668  65022.000000  0   -6837669.509    176881.308   -833717.663
10 0 59668  65142.000000  0   -6663772.132    349587.115  -1722255.338
10 0 59668  65262.000000  0   -6370645.699    512106.701  -2580524.743
10 0 59668  65382.000000  0   -5963729.494    659572.583  -3393481.089
99
